OBJECT_NAME,OBJECT_ID,EPOCH,MEAN_MOTION,ECCENTRICITY,INCLINATION,RA_OF_ASC_NODE,ARG_OF_PERICENTER,MEAN_ANOMALY,EPHEMERIS_TYPE,CLASSIFICATION_TYPE,NORAD_CAT_ID,ELEMENT_SET_NO,REV_AT_EPOCH,BSTAR,MEAN_MOTION_DOT,MEAN_MOTION_DDOT
GAOFEN-11 01,2018-063A,2026-06-20T06:16:39.030240,15.55367105,.00026896,97.1286,238.1325,343.5030,16.6137,0,U,43585,999,44082,.20904826E-3,.14113E-3,0
ICESAT-2,2018-070A,2026-06-20T07:09:05.610240,15.28328836,.00061068,92.0081,291.8197,100.3840,259.8098,0,U,43613,999,43293,.2881131E-3,.7951E-4,0
HYSIS,2018-096A,2026-06-20T07:47:03.255072,14.78619714,.00017591,97.9832,238.0480,97.7491,262.3920,0,U,43719,999,40788,-.1157437E-5,-.6E-6,0
KAZSTSAT,2018-099AB,2026-06-20T00:47:25.220256,14.99874388,.00086028,97.4272,202.8318,62.2449,297.9646,0,U,43783,999,41173,.1194559E-3,.1425E-4,0
SAUDISAT 5A,2018-102A,2026-06-20T07:23:38.995872,15.28074774,.00111677,97.3062,232.8291,119.5207,240.7148,0,U,43831,999,41615,.16629313E-3,.4486E-4,0
SAUDISAT 5B,2018-102C,2026-06-20T06:15:45.076896,15.28329788,.00118629,97.3171,235.8581,121.7819,238.4578,0,U,43833,999,41626,.15791017E-3,.4291E-4,0
GAOFEN-10R,2019-066A,2026-06-20T06:10:37.473024,14.83066262,.00068289,98.0503,124.8591,119.3841,240.8055,0,U,44622,999,36283,.11185945E-3,.856E-5,0
CARTOSAT-3,2019-081A,2026-06-20T07:38:58.037856,15.19297947,.00134503,97.4295,233.1363,138.6216,221.6040,0,U,44804,999,36394,.1270697E-3,.2619E-4,0
GAOFEN-12 01,2019-082A,2026-06-20T07:46:27.912288,14.80460567,.00021792,97.8101,177.6206,66.8949,293.2493,0,U,44819,999,35455,.41213367E-4,.265E-5,0
CSG-1,2019-092A,2026-06-20T07:00:16.299648,14.82155303,.00014435,97.8889,354.8493,90.3057,269.8322,0,U,44873,999,35193,.44061351E-4,.299E-5,0
NEMO-HD,2020-061F,2026-06-20T05:44:41.065152,15.44647035,.00021385,97.1914,233.1616,79.0953,281.0536,0,U,46277,999,32245,.20373608E-3,.9406E-4,0
SENTINEL-6A,2020-086A,2026-06-20T06:52:41.969568,12.80930002,.00079315,66.0398,128.6148,270.1789,89.8317,0,U,46984,999,26072,.86498486E-4,-.41E-6,0
CAS500-1,2021-022A,2026-06-20T06:55:24.150144,15.20161915,.00032578,97.3893,66.4790,284.3611,75.7262,0,U,47932,999,29123,.22628079E-3,.4829E-4,0
GAOFEN-12 02,2021-026A,2026-06-20T06:25:32.197728,14.80298034,.00039123,97.9922,169.4357,209.2390,150.8603,0,U,48079,999,28221,.39795554E-4,.25E-5,0
PLEIADES NEO 3,2021-034A,2026-06-20T07:00:38.190816,14.81669553,.00013263,97.8927,246.0142,90.4679,269.6686,0,U,48268,999,27811,.92148283E-4,.673E-5,0
PLEIADES NEO 4,2021-073E,2026-06-20T07:49:14.069856,14.81668829,.00013679,97.8930,246.0438,86.9157,273.2212,0,U,49070,999,26183,.11232434E-3,.832E-5,0
LANDSAT 9,2021-088A,2026-06-20T03:35:02.898240,14.57098814,.00013292,98.2279,241.2909,85.0666,275.0684,0,U,49260,999,25143,.62958764E-4,.238E-5,0
CSG-2,2022-008A,2026-06-20T07:48:50.766912,14.82156090,.00014567,97.8887,354.8768,89.1452,270.9928,0,U,51444,999,23705,.2982888E-5,-.28E-6,0
GAOFEN-12 03,2022-069A,2026-06-20T07:09:24.370272,14.80036610,.00021489,97.8271,59.0896,100.5424,259.6031,0,U,52912,999,21507,.293868E-4,.172E-5,0
SWOT,2022-173A,2026-06-20T06:36:13.048992,14.00169941,.00002841,77.6105,31.1415,90.4160,269.7024,0,U,54754,999,17958,.45501477E-4,.65E-6,0
GAOFEN-12 04,2023-123A,2026-06-20T07:32:49.585920,14.80233706,.00017846,97.9120,89.2874,82.1127,278.0287,0,U,57654,999,15309,.10256203E-3,.728E-5,0
PARS 1,2024-039Q,2026-06-20T07:01:00.060384,15.45779651,.00115411,97.4828,152.3098,102.3905,257.8636,0,U,59065,999,12912,.19839314E-3,.9535E-4,0
RESURS-P 4,2024-061A,2026-06-20T06:25:07.529664,15.32145901,.00023919,97.2752,119.1124,123.0692,237.0780,0,U,59371,999,12423,.80623305E-4,.2426E-4,0
LEGION 1,2024-081A,2026-06-20T06:17:06.385344,15.16684046,.00092188,97.5015,249.0862,7.3969,352.7399,0,U,59625,999,11800,.13576593E-3,.2593E-4,0
LEGION 2,2024-081B,2026-06-20T05:25:20.021952,15.16662306,.00104989,97.5015,249.1480,332.5042,27.5634,0,U,59626,999,11800,.15213439E-3,.2913E-4,0
ALOS-4 (DAICHI-4),2024-123A,2026-06-20T06:28:16.195296,14.79473770,.0001627,97.9248,268.4003,96.9352,263.2044,0,U,60182,999,10633,.15010345E-3,.107E-4,0
LEGION 3,2024-146A,2026-06-20T07:03:02.065824,15.16058184,.00080331,45.0028,13.8935,188.0074,172.0677,0,U,60452,999,10249,.19511387E-3,.3556E-4,0
LEGION 4,2024-146B,2026-06-20T05:32:38.031072,15.16052591,.00134887,45.0017,106.1408,324.5188,35.4792,0,U,60453,999,10133,.1950941E-3,.3559E-4,0
SENTINEL-2C,2024-157A,2026-06-20T04:18:32.043456,14.30818514,.00009915,98.5692,245.9193,83.1389,276.9906,0,U,60989,999,9341,.43568746E-4,.71E-6,0
IONOSFERA-M 1,2024-199A,2026-06-20T06:54:54.621216,14.22754816,.00020319,98.7170,44.4276,106.2498,253.8904,0,U,61735,999,12814,.28360171E-4,.2E-6,0
