GAOFEN-11 01            
1 43585U 18063A   26171.26156285  .00014113  00000+0  20905-3 0  9993
2 43585  97.1286 238.1325 0002689 343.5030  16.6137 15.55367105440827
ICESAT-2                
1 43613U 18070A   26171.29798160  .00007951  00000+0  28811-3 0  9996
2 43613  92.0081 291.8197 0006106 100.3840 259.8098 15.28328836432933
HYSIS                   
1 43719U 18096A   26171.32434323 -.00000060  00000+0 -11574-5 0  9999
2 43719  97.9832 238.0480 0001759  97.7491 262.3920 14.78619714407887
KAZSTSAT                
1 43783U 18099AB  26171.03293079  .00001425  00000+0  11946-3 0  9997
2 43783  97.4272 202.8318 0008602  62.2449 297.9646 14.99874388411735
SAUDISAT 5A             
1 43831U 18102A   26171.30809023  .00004486  00000+0  16629-3 0  9991
2 43831  97.3062 232.8291 0011167 119.5207 240.7148 15.28074774416154
SAUDISAT 5B             
1 43833U 18102C   26171.26093839  .00004291  00000+0  15791-3 0  9991
2 43833  97.3171 235.8581 0011862 121.7819 238.4578 15.28329788416269
GAOFEN-10R              
1 44622U 19066A   26171.25737816  .00000856  00000+0  11186-3 0  9994
2 44622  98.0503 124.8591 0006828 119.3841 240.8055 14.83066262362830
CARTOSAT-3              
1 44804U 19081A   26171.31872729  .00002619  00000+0  12707-3 0  9992
2 44804  97.4295 233.1363 0013450 138.6216 221.6040 15.19297947363943
GAOFEN-12 01            
1 44819U 19082A   26171.32393417  .00000265  00000+0  41213-4 0  9992
2 44819  97.8101 177.6206 0002179  66.8949 293.2493 14.80460567354559
CSG-1                   
1 44873U 19092A   26171.29185532  .00000299  00000+0  44061-4 0  9997
2 44873  97.8889 354.8493 0001443  90.3057 269.8322 14.82155303351934
NEMO-HD                 
1 46277U 20061F   26171.23936418  .00009406  00000+0  20374-3 0  9995
2 46277  97.1914 233.1616 0002138  79.0953 281.0536 15.44647035322458
SENTINEL-6A             
1 46984U 20086A   26171.28659687 -.00000041  00000+0  86498-4 0  9999
2 46984  66.0398 128.6148 0007931 270.1789  89.8317 12.80930002260727
CAS500-1                
1 47932U 21022A   26171.28847396  .00004829  00000+0  22628-3 0  9991
2 47932  97.3893  66.4790 0003257 284.3611  75.7262 15.20161915291237
GAOFEN-12 02            
1 48079U 21026A   26171.26773377  .00000250  00000+0  39796-4 0  9992
2 48079  97.9922 169.4357 0003912 209.2390 150.8603 14.80298034282210
PLEIADES NEO 3          
1 48268U 21034A   26171.29210869  .00000673  00000+0  92148-4 0  9995
2 48268  97.8927 246.0142 0001326  90.4679 269.6686 14.81669553278118
PLEIADES NEO 4          
1 49070U 21073E   26171.32585729  .00000832  00000+0  11232-3 0  9995
2 49070  97.8930 246.0438 0001367  86.9157 273.2212 14.81668829261830
LANDSAT 9               
1 49260U 21088A   26171.14933910  .00000238  00000+0  62959-4 0  9994
2 49260  98.2279 241.2909 0001329  85.0666 275.0684 14.57098814251437
CSG-2                   
1 51444U 22008A   26171.32558758 -.00000028  00000+0  29829-5 0  9995
2 51444  97.8887 354.8768 0001456  89.1452 270.9928 14.82156090237053
GAOFEN-12 03            
1 52912U 22069A   26171.29819873  .00000172  00000+0  29387-4 0  9994
2 52912  97.8271  59.0896 0002148 100.5424 259.6031 14.80036610215073
SWOT                    
1 54754U 22173A   26171.27515103  .00000065  00000+0  45501-4 0  9990
2 54754  77.6105  31.1415 0000284  90.4160 269.7024 14.00169941179587
GAOFEN-12 04            
1 57654U 23123A   26171.31446280  .00000728  00000+0  10256-3 0  9996
2 57654  97.9120  89.2874 0001784  82.1127 278.0287 14.80233706153092
PARS 1                  
1 59065U 24039Q   26171.29236181  .00009535  00000+0  19839-3 0  9996
2 59065  97.4828 152.3098 0011541 102.3905 257.8636 15.45779651129127
RESURS-P 4              
1 59371U 24061A   26171.26744826  .00002426  00000+0  80623-4 0  9990
2 59371  97.2752 119.1124 0002391 123.0692 237.0780 15.32145901124236
LEGION 1                
1 59625U 24081A   26171.26187946  .00002593  00000+0  13577-3 0  9996
2 59625  97.5015 249.0862 0009218   7.3969 352.7399 15.16684046118000
LEGION 2                
1 59626U 24081B   26171.22592618  .00002913  00000+0  15213-3 0  9994
2 59626  97.5015 249.1480 0010498 332.5042  27.5634 15.16662306118009
ALOS-4 (DAICHI-4)       
1 60182U 24123A   26171.26963189  .00001070  00000+0  15010-3 0  9997
2 60182  97.9248 268.4003 0001627  96.9352 263.2044 14.79473770106334
LEGION 3                
1 60452U 24146A   26171.29377391  .00003556  00000+0  19511-3 0  9990
2 60452  45.0028  13.8935 0008033 188.0074 172.0677 15.16058184102494
LEGION 4                
1 60453U 24146B   26171.23099573  .00003559  00000+0  19509-3 0  9998
2 60453  45.0017 106.1408 0013488 324.5188  35.4792 15.16052591101335
SENTINEL-2C             
1 60989U 24157A   26171.17953754  .00000071  00000+0  43569-4 0  9997
2 60989  98.5692 245.9193 0000991  83.1389 276.9906 14.30818514 93418
IONOSFERA-M 1           
1 61735U 24199A   26171.28813219  .00000020  00000+0  28360-4 0  9992
2 61735  98.7170  44.4276 0002031 106.2498 253.8904 14.22754816128146
